     2.100          NAVIGATION                              RINEX VERSION / TYPE
fic2rin                                 01/10/2012 00:07:38 PGM / RUN BY / DATE
                                                            END OF HEADER
11 12  1  9 22  0  0.0 -.221348367631D-03 -.363797880709D-11  .000000000000D+00
     .220000000000D+02  .423125000000D+02  .649562771182D-08  .100381907115D+00
     .222586095333D-05  .127223602030D-01  .729225575924D-05  .515366829872D+04
     .165600000000D+06 -.104308128357D-06  .101176055267D+01  .242143869400D-06
     .887775815540D+00  .202687500000D+03  .101986392508D+01 -.912109421590D-08
     .625740350312D-09  .100000000000D+01  .167000000000D+04  .000000000000D+00
     .240000000000D+01  .000000000000D+00 -.116415321827D-07  .220000000000D+02
     .158406000000D+06  .400000000000D+01
14 12  1  9 22  0  0.0  .189371407032D-03  .159161572810D-11  .000000000000D+00
     .240000000000D+02  .929375000000D+02  .376229957202D-08  .235727335424D+01
     .477582216263D-05  .622578081675D-02  .114068388939D-04  .515376610565D+04
     .165600000000D+06  .167638063431D-07 -.284836293704D+01 -.119209289551D-06
     .980623713565D+00  .168125000000D+03 -.205471160280D+01 -.747816863860D-08
    -.960754304987D-10  .100000000000D+01  .167000000000D+04  .000000000000D+00
     .240000000000D+01  .000000000000D+00 -.884756445885D-08  .240000000000D+02
     .158406000000D+06  .400000000000D+01
15 12  1  9 22  0  0.0 -.949404202402D-04  .682121026330D-12  .000000000000D+00
     .420000000000D+02  .867500000000D+02  .454340353671D-08  .203056549622D+01
     .471435487270D-05  .421582045965D-02  .124387443066D-04  .515375930023D+04
     .165600000000D+06 -.186264514923D-07 -.293154929544D+01  .109896063805D-06
     .947576464375D+00  .132031250000D+03 -.899982521027D-02 -.794533095493D-08
    -.229652423088D-09  .100000000000D+01  .167000000000D+04  .000000000000D+00
     .240000000000D+01  .000000000000D+00 -.102445483208D-07  .420000000000D+02
     .158406000000D+06  .400000000000D+01
16 12  1  9 22  0  0.0 -.218073837459D-03 -.181898940355D-11  .000000000000D+00
     .140000000000D+02 -.119812500000D+03  .411481425567D-08 -.254922032652D+01
    -.618398189545D-05  .630901928525D-02  .438466668129D-05  .515359453392D+04
     .165600000000D+06 -.111758708954D-06 -.776389091082D+00 -.242143869400D-07
     .979044516905D+00  .306375000000D+03 -.818334810130D-01 -.802354849872D-08
    -.325013538118D-09  .100000000000D+01  .167000000000D+04  .000000000000D+00
     .240000000000D+01  .000000000000D+00 -.977888703346D-08  .140000000000D+02
     .158406000000D+06  .400000000000D+01
17 12  1  9 22  0  0.0  .155754853040D-03 -.216004991671D-11  .000000000000D+00
     .940000000000D+02 -.700937500000D+02  .398302305175D-08  .279619764387D+01
    -.352039933205D-05  .699233519845D-02  .130534172058D-04  .515362955093D+04
     .165600000000D+06 -.745058059692D-08  .264580511126D+00 -.763684511185D-07
     .962649787096D+00  .125875000000D+03 -.237310954193D+01 -.754745723903D-08
     .439304013061D-09  .100000000000D+01  .167000000000D+04  .000000000000D+00
     .240000000000D+01  .000000000000D+00 -.107102096081D-07  .940000000000D+02
     .158406000000D+06  .400000000000D+01
18 12  1  9 22  0  0.0  .175979919732D-03  .181898940355D-11  .000000000000D+00
     .420000000000D+02 -.380312500000D+02  .544236955368D-08 -.204395944750D+01
    -.198930501938D-05  .127571164630D-01  .671856105328D-05  .515365482903D+04
     .165600000000D+06  .163912773132D-06  .233741210838D+01 -.707805156708D-07
     .930695317230D+00  .230250000000D+03 -.220072161321D+01 -.825105797540D-08
    -.398588031363D-09  .100000000000D+01  .167000000000D+04  .000000000000D+00
     .240000000000D+01  .000000000000D+00 -.111758708954D-07  .420000000000D+02
     .158406000000D+06  .400000000000D+01
19 12  1  9 22  0  0.0 -.223940704018D-03 -.386535248253D-11  .000000000000D+00
     .650000000000D+02 -.443750000000D+02  .419696053454D-08  .198424553947D+01
    -.226870179176D-05  .781490944792D-02  .119842588902D-04  .515374294662D+04
     .165600000000D+06 -.726431608200D-07  .317959959006D+00  .819563865662D-07
     .960041838648D+00  .148031250000D+03  .137941611970D+00 -.774567978151D-08
     .327513642258D-09  .100000000000D+01  .167000000000D+04  .000000000000D+00
     .240000000000D+01  .000000000000D+00 -.144354999065D-07  .650000000000D+02
     .158406000000D+06  .400000000000D+01
20 12  1  9 22  0  0.0  .597294420004D-04  .795807864051D-12  .000000000000D+00
     .280000000000D+02 -.317812500000D+02  .556130307917D-08 -.161643362306D+01
    -.155158340931D-05  .507699546870D-02  .679120421410D-05  .515378509140D+04
     .165600000000D+06  .894069671631D-07  .228359716442D+01  .987201929092D-07
     .930998428004D+00  .233250000000D+03  .126767144699D+01 -.840427864337D-08
    -.477162732886D-09  .100000000000D+01  .167000000000D+04  .000000000000D+00
     .240000000000D+01  .000000000000D+00 -.791624188423D-08  .280000000000D+02
     .158406000000D+06  .400000000000D+01
21 12  1  9 22  0  0.0 -.196525361389D-03 -.261479726760D-11  .000000000000D+00
     .290000000000D+02  .342500000000D+02  .555165982034D-08 -.978476284413D+00
     .211969017982D-05  .183806979330D-01  .542774796486D-05  .515365859985D+04
     .165600000000D+06  .307336449623D-06  .128486812215D+01  .314787030220D-06
     .931042976786D+00  .255750000000D+03 -.230423313219D+01 -.859821529304D-08
     .503949562951D-09  .100000000000D+01  .167000000000D+04  .000000000000D+00
     .240000000000D+01  .000000000000D+00 -.111758708954D-07  .290000000000D+02
     .158406000000D+06  .400000000000D+01
22 12  1  9 22  0  0.0  .143015291542D-03  .000000000000D+00  .000000000000D+00
     .660000000000D+02 -.380000000000D+02  .552344435934D-08 -.290421127569D+01
    -.206008553505D-05  .572328187991D-02  .711716711521D-05  .515368924522D+04
     .165600000000D+06  .875443220139D-07  .234108240453D+01 -.726431608200D-07
     .928408881602D+00  .225093750000D+03 -.198764382356D+01 -.836141971526D-08
    -.497877881469D-09  .100000000000D+01  .167000000000D+04  .000000000000D+00
     .340000000000D+01  .000000000000D+00 -.167638063431D-07  .660000000000D+02
     .158406000000D+06  .400000000000D+01
23 12  1  9 22  0  0.0  .243328977376D-03 -.329691829393D-11  .000000000000D+00
     .740000000000D+02  .960625000000D+02  .429232164957D-08  .151814333916D+01
     .517442822456D-05  .752622494474D-02  .112205743790D-04  .515369305801D+04
     .165600000000D+06  .502914190292D-07 -.289790342456D+01  .968575477600D-07
     .962227928336D+00  .164343750000D+03 -.303008558510D+01 -.784246952748D-08
    -.235366946835D-09  .100000000000D+01  .167000000000D+04  .000000000000D+00
     .240000000000D+01  .000000000000D+00 -.204890966415D-07  .740000000000D+02
     .158406000000D+06  .400000000000D+01
25 12  1  9 22  0  0.0  .309776514769D-04  .227373675443D-12  .000000000000D+00
     .110000000000D+03 -.115937500000D+03  .442768443083D-08 -.148814544616D+01
    -.602193176746D-05  .109480135143D-02  .351853668690D-05  .515377772522D+04
     .165600000000D+06  .100582838058D-06 -.826923741150D+00 -.689178705215D-07
     .966942117478D+00  .318031250000D+03  .725053328056D+00 -.821891377932D-08
    -.400373820034D-09  .100000000000D+01  .167000000000D+04  .000000000000D+00
     .240000000000D+01  .000000000000D+00  .512227416039D-08  .110000000000D+03
     .158406000000D+06  .400000000000D+01
27 12  1  9 22  0  0.0  .344633124769D-03  .397903932026D-11  .000000000000D+00
     .870000000000D+02  .122343750000D+03  .417910264783D-08  .233944797979D+01
     .629015266895D-05  .219749826938D-01  .204145908356D-05  .515357049561D+04
     .165600000000D+06  .318512320518D-06 -.190403855126D+01 -.633299350739D-07
     .981637559682D+00  .340531250000D+03 -.114729324765D+01 -.795961726429D-08
     .564309220030D-10  .100000000000D+01  .167000000000D+04  .000000000000D+00
     .240000000000D+01  .000000000000D+00 -.419095158577D-08  .870000000000D+02
     .158406000000D+06  .400000000000D+01
28 12  1  9 22  0  0.0  .101179350168D-03  .363797880709D-11  .000000000000D+00
     .860000000000D+02 -.144375000000D+03  .403052503040D-08 -.290380926580D+01
    -.739470124245D-05  .177816145588D-01  .420026481152D-05  .515371323776D+04
     .165600000000D+06  .216066837311D-06 -.769468761497D+00 -.447034835815D-07
     .977386802506D+00  .304687500000D+03 -.185573137391D+01 -.780032491484D-08
    -.341799951626D-09  .100000000000D+01  .167000000000D+04  .000000000000D+00
     .340000000000D+01  .000000000000D+00 -.107102096081D-07  .860000000000D+02
     .158406000000D+06  .400000000000D+01
29 12  1  9 22  0  0.0  .273623503745D-03  .341060513165D-11  .000000000000D+00
     .860000000000D+02 -.621875000000D+02  .410338520818D-08 -.736780328075D+00
    -.312924385071D-05  .215165922418D-02  .116266310215D-04  .515365971184D+04
     .165600000000D+06 -.484287738800D-07  .273075584248D+00  .447034835815D-07
     .963145842136D+00  .157437500000D+03 -.118848746276D+01 -.770389232661D-08
     .380730144653D-09  .100000000000D+01  .167000000000D+04  .000000000000D+00
     .340000000000D+01  .000000000000D+00 -.931322574615D-08  .860000000000D+02
     .158406000000D+06  .400000000000D+01
30 12  1  9 22  0  0.0 -.391388311982D-05 -.129602995003D-10  .000000000000D+00
     .570000000000D+02 -.104468750000D+03  .460412035152D-08  .259212572568D+01
    -.537559390068D-05  .108979983488D-01  .234320759773D-05  .515360556793D+04
     .165600000000D+06  .126659870148D-06 -.916556497800D+00 -.558793544769D-07
     .958148525681D+00  .332312500000D+03  .155286483519D+01 -.818962684512D-08
    -.353943314588D-09  .100000000000D+01  .167000000000D+04  .000000000000D+00
     .965000000000D+01  .000000000000D+00 -.419095158577D-08  .570000000000D+02
     .158406000000D+06  .400000000000D+01
